{"epoch":1784799577,"count":18318,"objects":[{"id":"50475","name":"ONEWEB-0395","type":"PAYLOAD","l1":"1 50475U 21132G   26203.87391804 -.00000260  00000-0 -76953-3 0  9996","l2":"2 50475  87.8889  13.9598 0001903  85.9372 274.1974 13.11416418220393"},{"id":"50476","name":"ONEWEB-0396","type":"PAYLOAD","l1":"1 50476U 21132H   26203.60157268  .00000074  00000-0  15456-3 0  9994","l2":"2 50476  87.9203 328.4151 0001731  98.2180 261.9149 13.18687084226308"},{"id":"50477","name":"ONEWEB-0397","type":"PAYLOAD","l1":"1 50477U 21132J   26203.76849573 -.00000024  00000-0 -94619-4 0  9995","l2":"2 50477  87.9202 328.3818 0001649 101.6138 258.5179 13.18686114226305"},{"id":"50478","name":"ONEWEB-0398","type":"PAYLOAD","l1":"1 50478U 21132K   26203.91802218  .00000520  00000-0  14313-2 0  9998","l2":"2 50478  87.8899  13.9449 0002060  87.1613 272.9751 13.11418075220298"},{"id":"50479","name":"ONEWEB-0399","type":"PAYLOAD","l1":"1 50479U 21132L   26203.90445376 -.00000005  00000-0 -50234-4 0  9990","l2":"2 50479  87.8889  13.9589 0001367  84.4354 275.6929 13.11418978220282"},{"id":"50480","name":"ONEWEB-0400","type":"PAYLOAD","l1":"1 50480U 21132M   26203.29132098  .00000064  00000-0  13048-3 0  9992","l2":"2 50480  87.9204 328.4664 0002028  96.3250 263.8113 13.18686043226238"},{"id":"50481","name":"ONEWEB-0401","type":"PAYLOAD","l1":"1 50481U 21132N   26203.79210777 -.00000020  00000-0 -84432-4 0  9999","l2":"2 50481  87.9205 328.3645 0001855 107.4666 252.6669 13.18686521226301"},{"id":"50482","name":"ONEWEB-0402","type":"PAYLOAD","l1":"1 50482U 21132P   26203.60325364  .00000113  00000-0  25422-3 0  9993","l2":"2 50482  87.9204 328.3907 0001748 113.5387 246.5929 13.18684941226306"},{"id":"50483","name":"ONEWEB-0403","type":"PAYLOAD","l1":"1 50483U 21132Q   26203.32504498  .00000046  00000-0  82893-4 0  9991","l2":"2 50483  87.9204 328.4705 0001794  95.9919 264.1417 13.18686626226220"},{"id":"50484","name":"ONEWEB-0404","type":"PAYLOAD","l1":"1 50484U 21132R   26203.73319834 -.00000457  00000-0 -13244-2 0  9995","l2":"2 50484  87.8892  13.9896 0001712  82.1845 277.9477 13.11416835220358"},{"id":"50485","name":"ONEWEB-0405","type":"PAYLOAD","l1":"1 50485U 21132S   26203.79379692 -.00000005  00000-0 -44481-4 0  9998","l2":"2 50485  87.9202 328.3629 0002298  93.2727 266.8669 13.18685673226681"},{"id":"50486","name":"ONEWEB-0406","type":"PAYLOAD","l1":"1 50486U 21132T   26203.78535517 -.00000009  00000-0 -55974-4 0  9991","l2":"2 50486  87.9202 328.3785 0001532  83.3875 276.7432 13.18686926226319"},{"id":"50487","name":"ONEWEB-0407","type":"PAYLOAD","l1":"1 50487U 21132U   26203.77860937 -.00000014  00000-0 -68390-4 0  9990","l2":"2 50487  87.9205 328.3734 0002032 103.7985 256.3373 13.18684365226258"},{"id":"50488","name":"ONEWEB-0409","type":"PAYLOAD","l1":"1 50488U 21132V   26203.73150503 -.00000517  00000-0 -14942-2 0  9998","l2":"2 50488  87.8896  13.9796 0001786  82.8057 277.3274 13.11416942220244"},{"id":"50489","name":"ONEWEB-0412","type":"PAYLOAD","l1":"1 50489U 21132W   26203.76681122  .00000003  00000-0 -26201-4 0  9990","l2":"2 50489  87.9200 328.3833 0001759 108.5998 251.5326 13.18686330226346"},{"id":"50490","name":"ONEWEB-0413","type":"PAYLOAD","l1":"1 50490U 21132X   26203.77186903  .00000055  00000-0  10623-3 0  9996","l2":"2 50490  87.9194 328.3781 0001933 108.1902 251.9441 13.18684699226288"},{"id":"50491","name":"ONEWEB-0414","type":"PAYLOAD","l1":"1 50491U 21132Y   26203.60493790  .00000093  00000-0  20345-3 0  9998","l2":"2 50491  87.9204 328.3968 0001747 102.1304 258.0024 13.18687425226297"},{"id":"50492","name":"ONEWEB-0417","type":"PAYLOAD","l1":"1 50492U 21132Z   26203.76512573 -.00000026  00000-0 -98732-4 0  9991","l2":"2 50492  87.9197 328.3817 0001772  92.8424 267.2911 13.18684927226299"},{"id":"50493","name":"ONEWEB-0418","type":"PAYLOAD","l1":"1 50493U 21132AA  26203.77510502  .00000007  00000-0 -14346-4 0  9990","l2":"2 50493  87.9197 328.3811 0001783  91.8314 268.3022 13.18685366226353"},{"id":"50494","name":"ONEWEB-0419","type":"PAYLOAD","l1":"1 50494U 21132AB  26203.79424536 -.00000015  00000-0 -69802-4 0  9991","l2":"2 50494  87.9200 328.3785 0002029  92.1794 267.9571 13.18665868226279"},{"id":"50495","name":"ONEWEB-0420","type":"PAYLOAD","l1":"1 50495U 21132AC  26203.30311940  .00000094  00000-0  20470-3 0  9995","l2":"2 50495  87.9194 328.4760 0002059 102.7626 257.3736 13.18684623226200"},{"id":"50496","name":"ONEWEB-0421","type":"PAYLOAD","l1":"1 50496U 21132AD  26203.59989617  .00000093  00000-0  20339-3 0  9992","l2":"2 50496  87.9199 328.4154 0001589 106.2208 253.9099 13.18686843226283"},{"id":"50497","name":"ONEWEB-0424","type":"PAYLOAD","l1":"1 50497U 21132AE  26203.33347348  .00000034  00000-0  53969-4 0  9995","l2":"2 50497  87.9204 328.4680 0002145  92.1745 267.9633 13.18686989226272"},{"id":"50498","name":"ONEWEB-0426","type":"PAYLOAD","l1":"1 50498U 21132AF  26203.29215075  .00001096  00000-0  27482-2 0  9990","l2":"2 50498  87.9205 328.4669 0001367  88.3082 271.8207 13.18680821226211"},{"id":"50499","name":"ONEWEB-0427","type":"PAYLOAD","l1":"1 50499U 21132AG  26203.78704808  .00000012  00000-0 -22970-5 0  9990","l2":"2 50499  87.9204 328.3581 0001766  93.7723 266.3612 13.18686343226302"},{"id":"50500","name":"ONEWEB-0429","type":"PAYLOAD","l1":"1 50500U 21132AH  26203.62179806  .00000104  00000-0  23006-3 0  9990","l2":"2 50500  87.9192 328.4124 0002017 102.1730 257.9628 13.18684686226253"},{"id":"50501","name":"ONEWEB-0430","type":"PAYLOAD","l1":"1 50501U 21132AJ  26203.76174539  .00000070  00000-0  14471-3 0  9992","l2":"2 50501  87.9194 328.3833 0002168 102.3824 257.7551 13.18684264226317"},{"id":"50502","name":"ONEWEB-0432","type":"PAYLOAD","l1":"1 50502U 21132AK  26203.74476171 -.00000010  00000-0 -59151-4 0  9999","l2":"2 50502  87.9204 328.3740 0002315  94.8318 265.3079 13.18686350226266"},{"id":"50503","name":"ONEWEB-0440","type":"PAYLOAD","l1":"1 50503U 21132AL  26203.78198713 -.00000034  00000-0 -11939-3 0  9994","l2":"2 50503  87.9204 328.3782 0001827 109.5663 250.5667 13.18684474226261"},{"id":"50504","name":"ONEWEB-0450","type":"PAYLOAD","l1":"1 50504U 21132AM  26203.77537661  .00000025  00000-0  30854-4 0  9999","l2":"2 50504  87.9195 328.3810 0002043 102.6039 257.5322 13.18686894226291"}]}